[{"OBJECT_NAME":"SHIJIAN-6 05A (SJ-6 05A)","OBJECT_ID":"2021-122A","EPOCH":"2026-03-09T21:12:10.842048","MEAN_MOTION":14.99085264,"ECCENTRICITY":0.0003221,"INCLINATION":97.4012,"RA_OF_ASC_NODE":42.3306,"ARG_OF_PERICENTER":76.6317,"MEAN_ANOMALY":283.5266,"EPHEMERIS_TYPE":0,"CLASSIFICATION_TYPE":"U","NORAD_CAT_ID":49961,"ELEMENT_SET_NO":999,"REV_AT_EPOCH":23387,"BSTAR":0.00027617,"MEAN_MOTION_DOT":3.299e-5,"MEAN_MOTION_DDOT":0},{"OBJECT_NAME":"STARLINK-5594","OBJECT_ID":"2023-028B","EPOCH":"2026-03-09T20:52:36.158880","MEAN_MOTION":14.98332681,"ECCENTRICITY":0.00024521,"INCLINATION":69.9991,"RA_OF_ASC_NODE":244.1407,"ARG_OF_PERICENTER":272.6317,"MEAN_ANOMALY":87.4561,"EPHEMERIS_TYPE":0,"CLASSIFICATION_TYPE":"U","NORAD_CAT_ID":55742,"ELEMENT_SET_NO":999,"REV_AT_EPOCH":16606,"BSTAR":-0.00010407127,"MEAN_MOTION_DOT":-1.335e-5,"MEAN_MOTION_DDOT":0}]
