SHIJIAN-6 05A (SJ-6 05A)
1 49961U 21122A   26068.88345882  .00003299  00000+0  27617-3 0  9993
2 49961  97.4012  42.3306 0003221  76.6317 283.5266 14.99085264233873
STARLINK-5594           
1 55742U 23028B   26068.86986295 -.00001335  00000+0 -10407-3 0  9991
2 55742  69.9991 244.1407 0002452 272.6317  87.4561 14.98332681166066
